IRIDIUM 119             
1 42959U 17061E   23355.60104670  .00000417  00000+0  14182-3 0  9996
2 42959  86.3971  44.9469 0002388  97.7276 262.4191 14.34217605324580
IRIDIUM 107             
1 42960U 17061F   23355.55030672  .00000016  00000+0 -11918-5 0  9994
2 42960  86.3971  44.9841 0002260  82.3369 277.8083 14.34218046324588
IRIDIUM 132             
1 42961U 17061G   23355.55664766  .00000407  00000+0  13840-3 0  9999
2 42961  86.3971  44.9668 0002392  89.7469 270.4001 14.34221282324589
IRIDIUM 136             
1 42962U 17061H   23355.65813390 -.00000019  00000+0 -13804-4 0  9992
2 42962  86.3966  44.9265 0002252 104.3723 255.7723 14.34216985324614
IRIDIUM 139             
1 42963U 17061J   23355.66446936  .00000384  00000+0  13011-3 0  9994
2 42963  86.3972  44.9718 0002337  90.3016 269.8448 14.34221459324621
IRIDIUM 125             
1 42964U 17061K   23355.65178337  .00000046  00000+0  95382-5 0  9999
2 42964  86.3974  45.0214 0002507  94.4872 265.6610 14.34215453324634
IRIDIUM 135             
1 43070U 17083A   23355.90500068  .00000207  00000+0  66941-4 0  9997
2 43070  86.3965 341.6201 0002030  84.5608 275.5819 14.34219277313965
IRIDIUM 138             
1 43071U 17083B   23355.93036069  .00000033  00000+0  48141-5 0  9996
2 43071  86.3954 341.3488 0002446  91.7374 268.4102 14.34217868313958
